[{"OBJECT_NAME":"HULIANWANG DIGUI-53","OBJECT_ID":"2025-168E","EPOCH":"2026-03-09T23:11:05.836128","MEAN_MOTION":13.29338971,"ECCENTRICITY":0.00084756,"INCLINATION":50.0053,"RA_OF_ASC_NODE":321.558,"ARG_OF_PERICENTER":154.5968,"MEAN_ANOMALY":205.5323,"EPHEMERIS_TYPE":0,"CLASSIFICATION_TYPE":"U","NORAD_CAT_ID":65110,"ELEMENT_SET_NO":999,"REV_AT_EPOCH":2949,"BSTAR":0.00019740347,"MEAN_MOTION_DOT":-3.2e-7,"MEAN_MOTION_DDOT":0},{"OBJECT_NAME":"FENGYUN 1C DEB","OBJECT_ID":"1999-025BTN","EPOCH":"2026-03-09T09:19:32.810016","MEAN_MOTION":13.90632257,"ECCENTRICITY":0.03212191,"INCLINATION":98.5858,"RA_OF_ASC_NODE":224.5469,"ARG_OF_PERICENTER":306.8348,"MEAN_ANOMALY":78.8515,"EPHEMERIS_TYPE":0,"CLASSIFICATION_TYPE":"U","NORAD_CAT_ID":31426,"ELEMENT_SET_NO":999,"REV_AT_EPOCH":94777,"BSTAR":0.0013190754,"MEAN_MOTION_DOT":2.455e-5,"MEAN_MOTION_DDOT":0}]
